[Satellite]
VERSION=1.1
NAME=ERS-2
NICKNAME=ERS-2
TLE1=1 23560U 95021A   22342.25588047  .00012736  00000+0  45027-3 0  9994
TLE2=2 23560  98.5055 271.9004 0002760 355.7404   4.3809 15.29352446479854
STATUS=0
